{
    "links": {
        "self": "http://www.neowsapp.com/rest/v1/neo/3639419?api_key=iIulBulltgU6a56xZRHN4H3l9WmuAYTsLGpBGhQ2"
    },
    "id": "3639419",
    "neo_reference_id": "3639419",
    "name": "(2013 KG6)",
    "designation": "2013 KG6",
    "nasa_jpl_url": "http://ssd.jpl.nasa.gov/sbdb.cgi?sstr=3639419",
    "absolute_magnitude_h": 25.4,
    "estimated_diameter": {
        "kilometers": {
            "estimated_diameter_min": 0.022108281,
            "estimated_diameter_max": 0.0494356193
        },
        "meters": {
            "estimated_diameter_min": 22.1082810359,
            "estimated_diameter_max": 49.435619262
        },
        "miles": {
            "estimated_diameter_min": 0.0137374447,
            "estimated_diameter_max": 0.0307178602
        },
        "feet": {
            "estimated_diameter_min": 72.5337327539,
            "estimated_diameter_max": 162.1903570994
        }
    },
    "is_potentially_hazardous_asteroid": false,
    "close_approach_data": [
        {
            "close_approach_date": "2013-05-24",
            "close_approach_date_full": "2013-May-24 13:22",
            "epoch_date_close_approach": 1369401720000,
            "relative_velocity": {
                "kilometers_per_second": "12.9975562623",
                "kilometers_per_hour": "46791.202544284",
                "miles_per_hour": "29074.2336031413"
            },
            "miss_distance": {
                "astronomical": "0.0268148173",
                "lunar": "10.4309639297",
                "kilometers": "4011439.552519151",
                "miles": "2492592.9548642438"
            },
            "orbiting_body": "Earth"
        }
    ],
    "orbital_data": {
        "orbit_id": "6",
        "orbit_determination_date": "2017-04-06 08:45:43",
        "first_observation_date": "2013-05-30",
        "last_observation_date": "2013-06-01",
        "data_arc_in_days": 2,
        "observations_used": 14,
        "orbit_uncertainty": "9",
        "minimum_orbit_intersection": ".00749149",
        "jupiter_tisserand_invariant": "3.936",
        "epoch_osculation": "2456444.5",
        "eccentricity": ".5217372729068231",
        "semi_major_axis": "1.767454429623529",
        "inclination": "3.825367654008018",
        "ascending_node_longitude": "67.06617320229468",
        "orbital_period": "858.2637396628631",
        "perihelion_distance": ".8453075755246643",
        "perihelion_argument": "114.7770661928199",
        "aphelion_distance": "2.689601283722394",
        "perihelion_time": "2456393.213592816727",
        "mean_anomaly": "21.51215964597412",
        "mean_motion": ".4194514848564062",
        "equinox": "J2000",
        "orbit_class": {
            "orbit_class_type": "APO",
            "orbit_class_description": "Near-Earth asteroid orbits which cross the Earth’s orbit similar to that of 1862 Apollo",
            "orbit_class_range": "a (semi-major axis) > 1.0 AU; q (perihelion) < 1.017 AU"
        }
    },
    "is_sentry_object": false
}